COSMOS 2433 (720)       
1 32275C 07052A   20257.99979167  .00000001  00000-0  00000-0 0  2574
2 32275  66.0068  25.9767 0003272 206.7172  71.7004  2.13104303    19
COSMOS 2432 (719)       
1 32276C 07052B   20257.99979167  .00000001  00000-0  00000-0 0  2575
2 32276  66.0194  26.0670 0007880 329.1116 259.2930  2.13103513    15
COSMOS 2434 (721)       
1 32393C 07065A   20257.99979167 -.00000000  00000-0  00000-0 0  2579
2 32393  64.5458 263.3823 0001300 171.1039 355.0735  2.13103104    11
COSMOS 2436 (723)       
1 32395C 07065C   19331.99979167 -.00000010  00000-0  00000-0 0  3316
2 32395  64.6628 273.4180 0015428 335.5981 236.1653  2.13280743    12
COSMOS 2456 (730)       
1 36111C 09070A   20257.99979167 -.00000000  00000-0  00000-0 0  2579
2 36111  64.2350 143.0602 0003348 332.0137   7.6637  2.13102757    15
COSMOS 2457 (733)       
1 36112C 09070B   19331.99979167  .00000012  00000-0  00000-0 0  3316
2 36112  64.1929 152.9203 0006907 146.4578 270.9332  2.13101641    11
COSMOS 2459 (731)       
1 36400C 10007A   20257.99979167  .00000001  00000-0  00000-0 0  2572
2 36400  65.9035  24.9025 0018043  11.3597 125.4240  2.13103550    16
COSMOS 2460 (732)       
1 36402C 10007C   20247.99979167  .00000001  00000-0  00000-0 0  2472
2 36402  65.8887  25.1967 0002485 136.6361 191.9146  2.13101608    18
COSMOS 2464 (736)       
1 37139C 10041C   20257.99979167 -.00000000  00000-0  00000-0 0  2570
2 37139  64.1454 262.7772 0025379   4.8777  24.2430  2.13100750    16
COSMOS 2476 (744)       
1 37867C 11064A   20257.99979167 -.00000000  00000-0  00000-0 0  2574
2 37867  64.5331 144.1642 0018968 235.9410   4.3255  2.13101721    11
COSMOS 2477 (745)       
1 37868C 11064B   20257.99979167 -.00000000  00000-0  00000-0 0  2575
2 37868  64.5412 144.2217 0016426 236.9758 181.7628  2.13101719    15
COSMOS 2475 (743)       
1 37869C 11064C   20257.99979167 -.00000000  00000-0  00000-0 0  2576
2 37869  64.5486 144.2239 0020250 259.8297 116.3867  2.13101980    12
COSMOS 2485 (747)       
1 39155C 13019A   20257.99979167 -.00000000  00000-0  00000-0 0  2578
2 39155  64.7005 144.4528 0019532 231.3805  53.4489  2.13101791    16
COSMOS 2492 (754)       
1 39620C 14012A   20257.99979167  .00000001  00000-0  00000-0 0  2579
2 39620  65.7798  24.6344 0011080 323.7942 356.0397  2.13103263    12
COSMOS 2500 (755)       
1 40001C 14032A   20257.99979167  .00000001  00000-0  00000-0 0  2576
2 40001  65.7205  24.5433 0007857 191.6691 348.5019  2.13102378    11
COSMOS 2501 (702)       
1 40315C 14075A   20246.99979167 -.00000000  00000-0  00000-0 0  2467
2 40315  63.8641 264.0765 0018067 211.6796 324.1857  2.13098881    18
COSMOS 2514 (751)       
1 41330C 16008A   20257.99979167  .00000001  00000-0  00000-0 0  2577
2 41330  65.5228  24.3937 0011103 203.8617 158.9104  2.13102904    13
COSMOS 2516 (753)       
1 41554C 16032A   20257.99979167 -.00000000  00000-0  00000-0 0  2572
2 41554  64.0846 263.7849 0015247 223.5546  30.1747  2.13101809    12
COSMOS 2522 (752)       
1 42939C 17055A   20257.99979167 -.00000000  00000-0  00000-0 0  2576
2 42939  64.3179 263.9912 0010283 247.9052 232.4069  2.13102062    18
COSMOS 2527 (756)       
1 43508C 18053A   20257.99979167 -.00000000  00000-0  00000-0 0  2578
2 43508  64.8649 144.3188 0006722 225.1506 287.0645  2.13102508    11
COSMOS 2529 (757)       
1 43687C 18086A   20257.99979167 -.00000000  00000-0  00000-0 0  2572
2 43687  64.5317 264.1346 0012542 266.5285 169.3996  2.13102149    17
COSMOS 2534 (758)       
1 44299C 19030A   20257.99979167 -.00000000  00000-0  00000-0 0  2572
2 44299  64.6018 263.9598 0015148 283.0408 287.9011  2.13102009    18
COSMOS 2544 (759)       
1 44850C 19088A   20257.99979167 -.00000000  00000-0  00000-0 0  2578
2 44850  64.8493 144.1849 0010465 264.0108 292.2067  2.13102194    17
COSMOS 2545 (760)       
1 45358C 20018A   19320.99979167 -.00000004  00000-0  00000-0 0  3201
2 45358  65.8070  35.0079 0005134  75.6998 123.1059  2.13101688    16
